IRIDIUM 126             
1 42809U 17039G   24036.94929072  .00000244  00000+0  80196-4 0  9997
2 42809  86.4006 353.9744 0002110  75.6763 284.4667 14.34219641346377
IRIDIUM 124             
1 42810U 17039H   24036.78475254  .00000544  00000+0  15579-3 0  9994
2 42810  86.4487 290.7983 0001988  91.0884 269.0545 14.43276649350722
IRIDIUM 128             
1 42811U 17039J   24036.94002269  .00000243  00000+0  79812-4 0  9992
2 42811  86.3966  25.4839 0002014  86.9117 273.2309 14.34215591346392
IRIDIUM 121             
1 42812U 17039K   24037.10785813  .00000147  00000+0  45326-4 0  9991
2 42812  86.4008 353.9303 0002191  84.1064 276.0381 14.34218203346386
IRIDIUM 133             
1 42955U 17061A   24037.11127861  .00000102  00000+0  29319-4 0  9993
2 42955  86.3971  25.5087 0002214  86.5466 273.5983 14.34216995331213
IRIDIUM 100             
1 42956U 17061B   24037.03516750  .00000482  00000+0  16494-3 0  9994
2 42956  86.3967  25.4792 0002062  86.6749 273.4682 14.34217583331227
IRIDIUM 122             
1 42957U 17061C   24036.93368240  .00000492  00000+0  16859-3 0  9998
2 42957  86.3965  25.5198 0002006  85.5702 274.5723 14.34217790331196
IRIDIUM 129             
1 42958U 17061D   24037.02882315  .00000446  00000+0  15205-3 0  9997
2 42958  86.3967  25.5378 0002058  84.4674 275.6757 14.34217610331226
